STARLINK-2486
1 18143C 21027BD  21326.17968238  .00002525  00000-0  18064-3 0  3260
2 18143  53.0519 307.1358 0001594  64.4803 353.2619 15.03960472    13
